{"fetched_at":"2026-03-30T09:12:31Z","count":15922,"tles":[{"name":"STARLINK-31029","line1":"1 58712U 24002H   26087.53866585  .00001146  00000+0  50812-4 0  9991","line2":"2 58712  53.1605 142.2092 0001289  90.5585 269.5563 15.30191104124904","category":"Starlink"}]}